CRE (WAAS/PRN 138)      
1 28868U 05036A   22243.67688247 -.00000071  00000+0  00000+0 0  9994
2 28868   0.7438  93.0604 0002680  35.9467 347.1892  1.00272120 32563
IOR-W (EGNOS/PRN 126)   
1 28899U 05044A   22243.88754674  .00000013  00000+0  00000+0 0  9993
2 28899   3.5567  37.9832 0002744 128.9038 196.5791  1.00272131 61624
QZS-1 (QZSS/PRN 183)    
1 37158U 10045A   22242.65625000 -.00000160  00000+0  00000+0 0  9996
2 37158  42.4121 132.3639 0736754 269.9169 308.6839  1.00301172 43819
GSAT-8 (GAGAN/PRN 127)  
1 37605U 11022A   22244.49897367  .00000087  00000+0  00000+0 0  9997
2 37605   0.0211 126.8134 0004213 118.8549 329.6385  1.00270784 41356
LUCH 5A (SDCM/PRN 140)  
1 37951U 11074B   22244.59219749 -.00000046  00000+0  00000+0 0  9997
2 37951   5.2045  96.2473 0004500  39.6388 224.9552  1.00271745 39301
SES-5 (EGNOS/PRN 136)   
1 38652U 12036A   22244.18799471  .00000036  00000+0  00000+0 0  9993
2 38652   0.0599 298.0915 0002085 213.1469 261.7517  1.00269924 37185
GSAT-10 (GAGAN/PRN 128) 
1 38779U 12051B   22244.15257686 -.00000163  00000+0  00000+0 0  9996
2 38779   0.0715 269.5663 0001740 301.3556 267.3216  1.00271599 36405
LUCH 5B (SDCM/PRN 125)  
1 38977U 12061A   22243.83901546 -.00000131  00000+0  00000+0 0  9997
2 38977   7.4512  62.0374 0005504  84.1117 119.6394  1.00272067 36280
ASTRA 5B (EGNOS/PRN 123)
1 39617U 14011B   22243.76854958  .00000157  00000+0  00000+0 0  9999
2 39617   0.0162   5.0099 0004309 162.4028 120.6869  1.00273853 30777
LUCH 5V (SDCM/PRN 141)  
1 39727U 14023A   22244.07636823 -.00000266  00000+0  00000+0 0  9990
2 39727   1.6705  76.2924 0003318 100.5348 285.6419  1.00271146548627
GSAT-15 (GAGAN/PRN 139) 
1 41028U 15065A   22244.50664729 -.00000256  00000+0  00000+0 0  9997
2 41028   0.0463 297.4285 0002834 179.2998 139.8106  1.00273249 24977
E 117 W B (WAAS/PRN 131)
1 41589U 16038B   22244.13729954 -.00000009  00000+0  00000+0 0  9997
2 41589   0.0051 280.7157 0000302 277.1005  74.8864  1.00272563 22818
SES-15 (WAAS/PRN 133)   
1 42709U 17026A   22243.59434420  .00000062  00000+0  00000+0 0  9998
2 42709   0.0387 338.4170 0000403 158.1645 287.9849  1.00269286 20244
QZS-2 (QZSS/PRN 184)    
1 42738U 17028A   22244.36252028 -.00000111  00000+0  00000+0 0  9996
2 42738  41.6496 263.0958 0752803 270.0498  78.7366  1.00266651 19255
QZS-3 (QZSS/PRN 189)    
1 42917U 17048A   22244.49632728 -.00000345  00000+0  00000+0 0  9999
2 42917   0.0540 185.5278 0001758 339.5854 121.1913  1.00275649 18481
QZS-4 (QZSS/PRN 185)    
1 42965U 17062A   22243.64006551 -.00000304  00000+0  00000+0 0  9998
2 42965  40.7528   1.1561 0747155 269.2522  77.9463  1.00286424 17916
GALAXY 30 (WAAS/PRN 135)
1 46114U 20056C   22244.53020067  .00000039  00000+0  00000+0 0  9996
2 46114   0.0158 191.6814 0002526 336.1277 238.7305  1.00271733  7511
